#aV2006  8 18  0  0   .00000000      96 DD+AD WGS84 FIT  NGA
## 1388 432000.00000000   900.00000000 53965  .0000000000000
+   29     1  2  3  4  5  6  7  8  9 10 11 13 14 15 16 17 18
+         19 20 21 22 23 24 25 26 27 28 29 30  0  0  0  0  0
+          0  0  0  0  0  0  0  0  0  0  0  0  0  0  0  0  0
+          0  0  0  0  0  0  0  0  0  0  0  0  0  0  0  0  0
+          0  0  0  0  0  0  0  0  0  0  0  0  0  0  0  0  0
++         0  0  0  0  0  0  0  0  0  0  0  0  0  0  0  0  0
++         0  0  0  0  0  0  0  0  0  0  0  0  0  0  0  0  0
++         0  0  0  0  0  0  0  0  0  0  0  0  0  0  0  0  0
++         0  0  0  0  0  0  0  0  0  0  0  0  0  0  0  0  0
++         0  0  0  0  0  0  0  0  0  0  0  0  0  0  0  0  0
%c cc cc ccc ccc cccc cccc cccc cccc ccccc ccccc ccccc ccccc
%c cc cc ccc ccc cccc cccc cccc cccc ccccc ccccc ccccc ccccc
%f  0.0000000  0.000000000  0.00000000000  0.000000000000000
%f  0.0000000  0.000000000  0.00000000000  0.000000000000000
%i    0    0    0    0      0      0      0      0         0
%i    0    0    0    0      0      0      0      0         0
/*      NGA, ST. LOUIS,MO.                                  
/*   EPHEMERIS COMPUTED FROM  3 DAYS OF DATA                
/* CCCCCCCCCCCCCCCCCCCCCCCCCCCCCCCCCCCCCCCCCCCCCCCCCCCCCCCCC
/* CCCCCCCCCCCCCCCCCCCCCCCCCCCCCCCCCCCCCCCCCCCCCCCCCCCCCCCCC
*  2006  8 18 10 15   .00000000                                                 
P  1 -14286.284760   2638.540108 -22039.222256     71.589878                    
V  1  -4170.620881 -28073.977304   -709.375753       .020956                    
P  2  22478.234321 -10345.938941  -9582.362997     25.503911                    
V  2  -7063.763372  10048.023855 -28361.228680       .040448                    
P  3 -13965.358681   8180.821673  20851.829176    161.762241                    
V  3  -8197.938854 -25797.348513   4908.827380      -.209682                    
P  4  19729.014139    379.395671 -17976.920676    295.504991                    
V  4 -16425.249906  15688.146399 -17385.417620       .065163                    
P  5   5883.009766 -14740.754790 -21504.630557    303.484318                    
V  5  25946.965211   7088.926204   2426.378870       .211032                    
P  6  -7251.602384 -25446.939674   2051.395482    599.094919                    
V  6   3099.259536  -3141.759111 -31035.402246       .008525                    
P  7 -16642.063076  -9263.614535  18814.225879    535.056380                    
V  7  -3989.290385 -23032.124981 -15250.629501      -.027789                    
P  8  13576.886954   7786.783499  21374.904793    -76.384710                    
V  8 -21281.372811  17216.856408   6791.476878      -.014207                    
P  9  13809.088135 -21032.457743  -8637.782094     32.454424                    
V  9   9337.446522  -5030.824705  29357.073590       .015486                    
P 10  21584.540357  -3004.961977  15296.769834     88.280078                    
V 10  17648.620320   8320.358713 -22823.226612       .005847                    
P 11 -10164.221185  22752.785877  -8888.340071    345.555337                    
V 11 -10883.259394   5683.381566  27470.442829       .020648                    
P 13   6078.248663  25701.552825   2955.307079     86.543745                    
V 13  -1125.945991   4082.758701 -32123.557255       .032025                    
P 14 -14133.240421 -14266.957387 -17349.848444     -7.346795                    
V 14  -2593.900994 -21959.440047  20026.884129       .008678                    
P 15 -14445.163661  -7669.649400  20863.376578    665.628673                    
V 15  21173.908706 -16358.136171   8170.063877       .074576                    
P 16 -23811.271103    231.399159  11972.514012     65.580138                    
V 16 -13381.072088  -7183.671108 -26537.896510       .031070                    
P 17  14581.329643  14826.251329 -16585.580521     98.205204                    
V 17   2101.817570  20986.953405  20510.945783      -.007826                    
P 18 -14557.756738 -16967.991757  14697.120558   -246.601838                    
V 18  17746.914976   5027.681663  23247.207019      -.011007                    
P 19  -9374.139286  18618.419323  16530.246543      8.588034                    
V 19  -4493.942534 -20419.389472  20649.271357       .028698                    
P 20   -911.422246  15697.074944 -21499.154990    -23.162871                    
V 20 -25800.779183  -8294.325829  -4958.287391       .003202                    
P 21  -7009.029107 -14240.279096  21323.293108     48.010793                    
V 21  21559.960499 -16307.777825  -4362.920656       .020353                    
P 22 -23435.943088 -12121.759373   3314.706555    126.558876                    
V 22   4834.377660  -1204.754886  31233.378647       .033537                    
P 23  -1209.866798  25057.037298  -8536.681899    137.765840                    
V 23  -4448.122143 -10099.212209 -29512.749393      -.000605                    
P 24  14748.137165   7021.080322 -20767.688815     29.379997                    
V 24 -20806.635248  16982.958694  -8660.633340       .028103                    
P 25 -20973.025263   7063.157685 -14393.984768    293.973598                    
V 25  11517.412172 -15183.338150 -23444.253955       .144079                    
P 26   9128.699289 -16772.214750  17794.257758   -220.371836                    
V 26   5233.196438  23031.600903  19160.730175      -.140059                    
P 27   5562.405029  15495.374233  21393.865893     63.472559                    
V 27 -19080.707664  17436.850779  -8206.652208       .018266                    
P 28  21881.317177  13652.504456   7359.560242     20.687725                    
V 28  -9118.379055   -929.236735  29699.492719      -.009053                    
P 29  10689.805558 -14045.731941  19978.616988    500.011182                    
V 29   5734.263822  24242.107766  14421.591127       .006570                    
P 30  -9134.247989 -16942.186551 -18643.476659      7.242329                    
V 30  22505.861166   5369.593642 -16042.210971       .012230                    
EOF
